[{"OBJECT_NAME":"STARLINK-30494","OBJECT_ID":"2023-151G","EPOCH":"2026-03-09T08:39:06.366240","MEAN_MOTION":15.28417441,"ECCENTRICITY":0.00011553,"INCLINATION":43.0027,"RA_OF_ASC_NODE":192.4566,"ARG_OF_PERICENTER":241.5536,"MEAN_ANOMALY":118.52,"EPHEMERIS_TYPE":0,"CLASSIFICATION_TYPE":"U","NORAD_CAT_ID":57970,"ELEMENT_SET_NO":999,"REV_AT_EPOCH":13740,"BSTAR":-3.569111e-5,"MEAN_MOTION_DOT":-1.272e-5,"MEAN_MOTION_DDOT":0},{"OBJECT_NAME":"STARLINK-31931","OBJECT_ID":"2024-098G","EPOCH":"2026-03-09T23:01:51.686400","MEAN_MOTION":15.2756989,"ECCENTRICITY":0.00010586,"INCLINATION":43.0021,"RA_OF_ASC_NODE":276.797,"ARG_OF_PERICENTER":235.6554,"MEAN_ANOMALY":124.4198,"EPHEMERIS_TYPE":0,"CLASSIFICATION_TYPE":"U","NORAD_CAT_ID":59864,"ELEMENT_SET_NO":999,"REV_AT_EPOCH":10188,"BSTAR":2.7684931e-5,"MEAN_MOTION_DOT":5.0e-6,"MEAN_MOTION_DDOT":0}]
